OBJECT_NAME,OBJECT_ID,EPOCH,MEAN_MOTION,ECCENTRICITY,INCLINATION,RA_OF_ASC_NODE,ARG_OF_PERICENTER,MEAN_ANOMALY,EPHEMERIS_TYPE,CLASSIFICATION_TYPE,NORAD_CAT_ID,ELEMENT_SET_NO,REV_AT_EPOCH,BSTAR,MEAN_MOTION_DOT,MEAN_MOTION_DDOT
INTELSAT 31 (IS-31),2016-035A,2025-10-03T11:28:59.592864,1.00272676,.00016929,0.0161,227.1694,359.4581,223.0023,0,U,41581,999,3410,0,-.151E-5,0
BEIDOU-2 G7,2016-037A,2025-10-03T14:49:05.784384,1.00268981,.00053359,1.5799,66.7920,344.7232,293.8872,0,U,41586,999,431,0,-.351E-5,0
ABS-2A (MONGOLSAT-1),2016-038A,2025-10-03T08:51:52.161408,1.00271650,.0001853,0.0180,193.0303,308.2213,78.7788,0,U,41588,999,3413,0,0,0
EUTELSAT 117 WEST B,2016-038B,2025-10-03T06:40:56.263872,1.00271839,.00002646,0.0234,40.1613,221.8330,93.4695,0,U,41589,999,3408,0,-.11E-6,0
BRISAT,2016-039A,2025-10-03T09:56:38.587200,1.00271683,.00022918,0.0146,240.1937,302.1805,129.6712,0,U,41591,999,3403,0,-.196E-5,0
ECHOSTAR 18,2016-039B,2025-10-03T11:38:36.172032,1.00268030,.00016745,0.0245,184.9034,8.1849,292.6563,0,U,41592,999,3405,0,0,0
SKYSAT-C1,2016-040C,2025-10-03T08:38:39.630624,15.30807472,.00021197,96.9944,317.3841,177.5057,182.6196,0,U,41601,999,51850,.60952521E-3,.181E-3,0
LAPAN-A3,2016-040E,2025-10-03T15:16:40.811808,15.30761252,.00097999,97.1425,276.7812,204.6629,155.4145,0,U,41603,999,51553,.25830769E-3,.7617E-4,0
BIROS,2016-040F,2025-10-03T12:31:29.354592,15.71837873,.00061566,97.0803,306.1935,98.0328,262.1635,0,U,41604,999,51764,.69942942E-3,.9138E-3,0
M3MSAT,2016-040G,2025-10-03T13:00:21.259008,15.76845530,.0006216,97.0692,303.5678,111.5416,248.6514,0,U,41605,999,51749,.83136365E-3,.135403E-2,0
MUOS-5,2016-041A,2025-10-03T13:08:19.953024,1.00273311,.02020029,2.7785,298.0534,260.7158,265.8630,0,U,41622,999,3451,0,-.127E-5,0
SJ 16-02,2016-043A,2025-10-03T15:19:07.802400,14.92355426,.00080066,75.0018,44.2433,301.7188,58.3219,0,U,41634,999,50285,.53021194E-3,.5402E-4,0
GAOFEN-3,2016-049A,2025-10-03T14:15:14.499648,14.42208621,.00009865,98.4062,283.2340,109.4164,250.7133,0,U,41727,999,48166,.92353408E-4,.261E-5,0
JCSAT-16,2016-050A,2025-10-03T10:54:32.896224,1.00270106,.00013747,0.0025,104.5542,10.4633,205.0069,0,U,41729,999,3349,0,-.25E-5,0
QSS (MOZI),2016-051A,2025-10-03T15:50:29.711040,15.65065301,.00019351,97.2938,199.3598,298.8975,61.2091,0,U,41731,999,50994,.10961093E-2,.108869E-2,0
INTELSAT 36 (IS-36),2016-053A,2025-10-03T12:15:40.118400,1.00269073,.00015305,0.0134,193.2188,151.2312,280.4089,0,U,41747,999,3337,0,0,0
INSAT-3DR,2016-054A,2025-10-03T02:00:39.095712,1.00271588,.00125557,0.0952,87.6096,175.8205,212.8000,0,U,41752,999,3324,0,-.77E-6,0
PERUSAT 1,2016-058A,2025-10-03T15:59:41.883072,14.58582964,.00014089,98.1785,348.9387,91.4682,268.6679,0,U,41770,999,48170,.24910672E-3,.1113E-4,0
SKYSAT-C4,2016-058B,2025-10-03T12:45:22.512384,15.39563371,.00037093,96.9482,305.2280,106.6181,253.5474,0,U,41771,999,50586,.5780441E-3,.22701E-3,0
SKYSAT-C5,2016-058C,2025-10-03T09:19:33.210048,15.36055095,.0001006,97.0890,322.8223,313.8476,46.2685,0,U,41772,999,50436,.61360006E-3,.21504E-3,0
SKYSAT-C2,2016-058D,2025-10-03T12:37:04.996992,15.35111898,.00016866,97.0465,304.0986,238.8544,121.2535,0,U,41773,999,50558,.533747E-3,.18134E-3,0
SKYSAT-C3,2016-058E,2025-10-03T12:42:53.726400,15.41116104,.00027208,96.9423,313.6644,100.9039,259.2515,0,U,41774,999,50643,.65296304E-3,.2701E-3,0
PISAT,2016-059B,2025-10-03T11:55:11.182944,14.68235652,.00280993,97.8181,283.1731,307.3659,52.4988,0,U,41784,999,48206,.4941547E-3,.2817E-4,0
ALSAT 1B,2016-059C,2025-10-03T14:05:26.372256,14.71956919,.00087542,97.7867,291.3852,340.1341,19.9525,0,U,41785,999,48282,.19859349E-3,.1199E-4,0
ALSAT 2B,2016-059D,2025-10-03T15:20:32.489952,14.70352701,.00009228,98.0274,338.4244,64.4002,295.7300,0,U,41786,999,48306,.35199931E-3,.2079E-4,0
PATHFINDER 1,2016-059E,2025-10-03T11:31:14.863296,14.67137298,.00274297,97.8157,282.5100,306.6383,53.2301,0,U,41787,999,48206,.37266383E-3,.2059E-4,0
SCATSAT 1,2016-059H,2025-10-03T03:35:01.946976,14.78586003,.00554206,98.1576,331.9139,357.2591,2.8307,0,U,41790,999,6359,.44919021E-3,.3315E-4,0
GSAT-18,2016-060A,2025-10-03T14:00:06.382080,1.00271704,.0001416,0.0435,85.0757,339.1935,232.2421,0,U,41793,999,3295,0,-.76E-6,0
SKY MUSTER 2 (NBN1B),2016-060B,2025-10-03T09:11:57.732576,1.00272418,.00015405,0.0134,231.6793,313.6573,109.7991,0,U,41794,999,3294,0,-.243E-5,0
