INTELSAT 31 (IS-31)     
1 41581U 16035A   25276.47846751 -.00000151  00000+0  00000+0 0  9994
2 41581   0.0161 227.1694 0001692 359.4581 223.0023  1.00272676 34104
BEIDOU-2 G7             
1 41586U 16037A   25276.61742806 -.00000351  00000+0  00000+0 0  9995
2 41586   1.5799  66.7920 0005335 344.7232 293.8872  1.00268981  4310
ABS-2A (MONGOLSAT-1)    
1 41588U 16038A   25276.36935372  .00000000  00000+0  00000+0 0  9992
2 41588   0.0180 193.0303 0001853 308.2213  78.7788  1.00271650 34130
EUTELSAT 117 WEST B     
1 41589U 16038B   25276.27842898 -.00000011  00000+0  00000+0 0  9996
2 41589   0.0234  40.1613 0000264 221.8330  93.4695  1.00271839 34086
BRISAT                  
1 41591U 16039A   25276.41433550 -.00000196  00000+0  00000+0 0  9991
2 41591   0.0146 240.1937 0002291 302.1805 129.6712  1.00271683 34038
ECHOSTAR 18             
1 41592U 16039B   25276.48514088  .00000000  00000+0  00000+0 0  9998
2 41592   0.0245 184.9034 0001674   8.1849 292.6563  1.00268030 34056
SKYSAT-C1               
1 41601U 16040C   25276.36018091  .00018100  00000+0  60953-3 0  9998
2 41601  96.9944 317.3841 0002119 177.5057 182.6196 15.30807472518506
LAPAN-A3                
1 41603U 16040E   25276.63658347  .00007617  00000+0  25831-3 0  9991
2 41603  97.1425 276.7812 0009799 204.6629 155.4145 15.30761252515536
BIROS                   
1 41604U 16040F   25276.52186753  .00091380  00000+0  69943-3 0  9999
2 41604  97.0803 306.1935 0006156  98.0328 262.1635 15.71837873517647
M3MSAT                  
1 41605U 16040G   25276.54191272  .00135403  00000+0  83136-3 0  9999
2 41605  97.0692 303.5678 0006216 111.5416 248.6514 15.76845530517497
MUOS-5                  
1 41622U 16041A   25276.54745316 -.00000127  00000+0  00000+0 0  9993
2 41622   2.7785 298.0534 0202002 260.7158 265.8630  1.00273311 34513
SJ 16-02                
1 41634U 16043A   25276.63828475  .00005402  00000+0  53021-3 0  9991
2 41634  75.0018  44.2433 0008006 301.7188  58.3219 14.92355426502852
GAOFEN-3                
1 41727U 16049A   25276.59391782  .00000261  00000+0  92353-4 0  9991
2 41727  98.4062 283.2340 0000986 109.4164 250.7133 14.42208621481668
JCSAT-16                
1 41729U 16050A   25276.45454741 -.00000250  00000+0  00000+0 0  9997
2 41729   0.0025 104.5542 0001374  10.4633 205.0069  1.00270106 33493
QSS (MOZI)              
1 41731U 16051A   25276.66006610  .00108869  00000+0  10961-2 0  9996
2 41731  97.2938 199.3598 0001935 298.8975  61.2091 15.65065301509944
INTELSAT 36 (IS-36)     
1 41747U 16053A   25276.51088100  .00000000  00000+0  00000+0 0  9991
2 41747   0.0134 193.2188 0001530 151.2312 280.4089  1.00269073 33374
INSAT-3DR               
1 41752U 16054A   25276.08378583 -.00000077  00000+0  00000+0 0  9992
2 41752   0.0952  87.6096 0012555 175.8205 212.8000  1.00271588 33246
PERUSAT 1               
1 41770U 16058A   25276.66645698  .00001113  00000+0  24911-3 0  9996
2 41770  98.1785 348.9387 0001408  91.4682 268.6679 14.58582964481700
SKYSAT-C4               
1 41771U 16058B   25276.53151056  .00022701  00000+0  57804-3 0  9996
2 41771  96.9482 305.2280 0003709 106.6181 253.5474 15.39563371505869
SKYSAT-C5               
1 41772U 16058C   25276.38857882  .00021504  00000+0  61360-3 0  9992
2 41772  97.0890 322.8223 0001006 313.8476  46.2685 15.36055095504365
SKYSAT-C2               
1 41773U 16058D   25276.52575228  .00018134  00000+0  53375-3 0  9992
2 41773  97.0465 304.0986 0001686 238.8544 121.2535 15.35111898505584
SKYSAT-C3               
1 41774U 16058E   25276.52978850  .00027010  00000+0  65296-3 0  9999
2 41774  96.9423 313.6644 0002720 100.9039 259.2515 15.41116104506439
PISAT                   
1 41784U 16059B   25276.49665721  .00002817  00000+0  49415-3 0  9990
2 41784  97.8181 283.1731 0028099 307.3659  52.4988 14.68235652482064
ALSAT 1B                
1 41785U 16059C   25276.58711079  .00001199  00000+0  19859-3 0  9990
2 41785  97.7867 291.3852 0008754 340.1341  19.9525 14.71956919482828
ALSAT 2B                
1 41786U 16059D   25276.63926493  .00002079  00000+0  35200-3 0  9991
2 41786  98.0274 338.4244 0000922  64.4002 295.7300 14.70352701483062
PATHFINDER 1            
1 41787U 16059E   25276.48003314  .00002059  00000+0  37266-3 0  9995
2 41787  97.8157 282.5100 0027429 306.6383  53.2301 14.67137298482069
SCATSAT 1               
1 41790U 16059H   25276.14932809  .00003315  00000+0  44919-3 0  9991
2 41790  98.1576 331.9139 0055420 357.2591   2.8307 14.78586003 63591
GSAT-18                 
1 41793U 16060A   25276.58340720 -.00000076  00000+0  00000+0 0  9990
2 41793   0.0435  85.0757 0001416 339.1935 232.2421  1.00271704 32952
SKY MUSTER 2 (NBN1B)    
1 41794U 16060B   25276.38330709 -.00000243  00000+0  00000+0 0  9991
2 41794   0.0134 231.6793 0001540 313.6573 109.7991  1.00272418 32943
